OBJECT_NAME,OBJECT_ID,EPOCH,MEAN_MOTION,ECCENTRICITY,INCLINATION,RA_OF_ASC_NODE,ARG_OF_PERICENTER,MEAN_ANOMALY,EPHEMERIS_TYPE,CLASSIFICATION_TYPE,NORAD_CAT_ID,ELEMENT_SET_NO,REV_AT_EPOCH,BSTAR,MEAN_MOTION_DOT,MEAN_MOTION_DDOT
COSMOS 2532 (RODNIK-S 18),2018-097C,2026-07-20T06:27:58.578336,12.42910303,.00177897,82.5116,201.5895,349.7684,10.3031,0,U,43753,999,34638,-.62559357E-3,-.77E-6,0
MINXSS-2,2018-099A,2026-07-20T04:30:14.419296,15.49056948,.00088715,97.4516,278.4911,145.1260,215.0574,0,U,43758,999,41923,.45915568E-3,.24879E-3,0
SIRION PATHFINDER-2,2018-099B,2026-07-20T01:56:18.057120,15.14800599,.00089975,97.4233,249.3587,174.6217,185.5114,0,U,43759,999,41760,.15057646E-3,.2733E-4,0
AISTECHSAT 2,2018-099L,2026-07-20T02:24:03.764448,15.15741130,.00051397,97.4273,248.4166,164.6633,195.4757,0,U,43768,999,41726,.14172826E-3,.2637E-4,0
FOX-1CLIFF (AO-95),2018-099N,2026-07-20T02:29:24.152928,15.27333167,.00076585,97.4362,261.2401,220.0884,139.9791,0,U,43770,999,41824,.23587359E-3,.6244E-4,0
RANGE-A,2018-099R,2026-07-19T20:06:34.528032,15.13629268,.00089852,97.3948,242.4639,226.4445,133.6041,0,U,43773,999,41743,.11138422E-3,.1938E-4,0
SNUSAT-2,2018-099AA,2026-07-20T03:19:18.420096,15.22283253,.00107475,97.4037,254.0225,171.0572,189.0857,0,U,43782,999,41804,.18973754E-3,.4304E-4,0
SNUGLITE,2018-099AC,2026-07-20T02:15:17.325792,15.27820786,.0004033,97.3846,255.0614,147.3868,212.7621,0,U,43784,999,41834,.24534791E-3,.6593E-4,0
ITASAT,2018-099AE,2026-07-20T02:02:54.259008,15.19415168,.00111665,97.4008,251.9452,231.2773,128.7464,0,U,43786,999,41790,.17224113E-3,.3585E-4,0
EAGLET-I,2018-099AJ,2026-07-20T02:52:03.955872,15.13154065,.00099211,97.4212,249.9171,224.9635,135.0794,0,U,43790,999,41731,.95800816E-4,.1636E-4,0
ESEO,2018-099AL,2026-07-20T02:33:55.327104,15.04335091,.00111323,97.3963,237.0842,214.2138,145.8373,0,U,43792,999,41675,.81296964E-4,.1076E-4,0
THEA,2018-099AQ,2026-07-20T04:12:43.349472,15.36042002,.00084247,97.4419,271.2109,158.4768,201.6832,0,U,43796,999,41775,.29550554E-3,.10303E-3,0
ASTROCAST 0.1,2018-099AS,2026-07-20T05:40:16.516992,15.51691624,.00053463,97.4363,280.8170,115.3544,244.8262,0,U,43798,999,41955,.4063821E-3,.24133E-3,0
JY1SAT (JO-97),2018-099AX,2026-07-20T02:22:46.052832,15.34614501,.00071935,97.4105,264.0674,143.5903,216.5831,0,U,43803,999,41867,.2904759E-3,.9671E-4,0
SUOMI-100,2018-099AY,2026-07-20T03:06:21.389472,15.29100285,.00110026,97.4164,261.4129,156.2124,203.9627,0,U,43804,999,41845,.2494567E-3,.6983E-4,0
CENTAURI-1,2018-099BD,2026-07-20T03:09:01.781568,15.16651835,.00134247,97.4198,252.1462,206.8523,153.2017,0,U,43809,999,41749,.13784283E-3,.2635E-4,0
GLOBAL-2,2018-099BG,2026-07-20T02:28:09.931872,15.08843512,.00070706,97.3546,236.2479,53.7355,306.4526,0,U,43812,999,41687,.12317865E-3,.188E-4,0
SEAHAWK-1,2018-099BQ,2026-07-20T02:48:51.542208,15.23284658,.00083898,97.3935,253.1084,180.9734,179.1488,0,U,43820,999,41754,.19578224E-3,.4576E-4,0
SAUDISAT 5A,2018-102A,2026-07-20T07:07:19.525728,15.28350669,.00099411,97.3045,262.2428,27.2766,332.8994,0,U,43831,999,42073,.10994224E-3,.2965E-4,0
SAUDISAT 5B,2018-102C,2026-07-20T07:26:42.487008,15.28592209,.00107075,97.3155,265.3857,28.5796,331.6029,0,U,43833,999,42085,.10227864E-3,.2774E-4,0
ISAT,2018-111D,2026-07-19T19:50:39.029568,15.71622952,.00084092,97.5847,138.7179,131.1464,229.0525,0,U,43879,999,41628,.62697577E-3,.81147E-3,0
UWE-4,2018-111E,2026-07-20T06:22:06.006720,15.48018071,.00069255,97.5826,131.2291,175.7426,184.3884,0,U,43880,999,41589,.37307802E-3,.19451E-3,0
D-STAR ONE (SPARROW),2018-111F,2026-07-19T19:19:21.797760,15.86854129,.00090053,97.6067,145.0445,135.6604,224.5389,0,U,43881,999,41652,.79431197E-3,.207395E-2,0
JILIN-1 09,2019-005B,2026-07-20T06:41:51.000000,15.20765256,.00018571,97.4741,295.9657,24.6037,335.5286,0,U,43943,999,41417,.11734812E-3,.2514E-4,0
JILIN-1 10,2019-005E,2026-07-20T05:50:13.285248,15.26038744,.00090299,97.4793,300.0569,153.5177,206.6524,0,U,43946,999,41435,.12613841E-3,.3175E-4,0
EGYPTSAT-A (MISRSAT-A),2019-008A,2026-07-20T07:23:38.391936,14.72339073,.0001772,98.0173,265.6236,93.5189,266.6221,0,U,44047,999,39811,.25222098E-4,.11E-5,0
EMISAT,2019-018A,2026-07-20T06:34:36.234336,14.43650147,.00195502,98.4625,259.8890,116.9308,243.3883,0,U,44078,999,38483,-.1614722E-4,-.99E-6,0
JILIN-1 GAOFEN 3A,2019-032C,2026-07-20T07:38:52.268928,15.33259829,.00050785,44.9738,174.4975,143.1290,216.9945,0,U,44312,999,39292,.23413131E-3,.7367E-4,0
WT 1B,2019-032G,2026-07-20T06:58:23.682432,15.27776970,.00081178,44.9721,240.1603,67.8997,292.2747,0,U,44316,999,39214,.17375184E-3,.451E-4,0
